#Pass ID: 20250119_092959_METOP-C
#Satellite: METOP-C
#Configuration: METOP-C
#Start time: 2025-01-19 09:30:04.320501

#LorettStation: 1.0.0 05.05.2024
#Station: Regia
#Location: 37.494653 lon 55.929028 lat
#TLE: 1 43689U 18087A   25018.74162369  .00000263  00000+0  14022-3 0  9990
#TLE: 2 43689  98.6959  81.1779 0001596 157.4582 202.6665 14.21483452321742

#Time	Az	El	Level	SNR
#Closed at: 2025-01-19 09:29:59.321204